{
  "type": "FeatureCollection",
  "features": [
    {
      "type": "Feature",
      "properties": {
        "norad_id": 66919,
        "name": "HULIANWANG DIGUI-109",
        "group": "last-30-days",
        "lat": 47.46796927758467,
        "lon": -150.3550399399286,
        "alt_km": 878.766433453131,
        "timestamp": "2025-12-17T23:38:05.626632+00:00",
        "meta_object_name": "HULIANWANG DIGUI-109",
        "meta_object_id": "2025-285E",
        "meta_epoch": "2025-12-17T16:17:59.322912",
        "meta_mean_motion": 14.03955736,
        "meta_eccentricity": 0.0007858,
        "meta_inclination": 50.0079,
        "meta_ra_of_asc_node": 97.097,
        "meta_arg_of_pericenter": 307.3078,
        "meta_mean_anomaly": 52.711,
        "meta_ephemeris_type": 0,
        "meta_classification_type": "U",
        "meta_norad_cat_id": 66919,
        "meta_element_set_no": 999,
        "meta_rev_at_epoch": 160,
        "meta_bstar": -1.6375e-05,
        "meta_mean_motion_dot": -1.78e-06,
        "meta_mean_motion_ddot": 0,
        "tle_line1": "1 66919U 25285E   25351.67915883 -.00000178  00000+0 -16375-4 0  9999",
        "tle_line2": "2 66919  50.0079  97.0970 0007858 307.3078  52.7110 14.03955736  1608"
      },
      "geometry": {
        "type": "Point",
        "coordinates": [
          -150.3550399399286,
          47.46796927758467
        ]
      }
    },
    {
      "type": "Feature",
      "properties": {
        "norad_id": 66920,
        "name": "HULIANWANG DIGUI-110",
        "group": "last-30-days",
        "lat": 45.906480323243514,
        "lon": -144.1810015303116,
        "alt_km": 878.5536058849711,
        "timestamp": "2025-12-17T23:38:05.626642+00:00",
        "meta_object_name": "HULIANWANG DIGUI-110",
        "meta_object_id": "2025-285F",
        "meta_epoch": "2025-12-17T14:34:06.036384",
        "meta_mean_motion": 14.03681043,
        "meta_eccentricity": 0.00055887,
        "meta_inclination": 50.0111,
        "meta_ra_of_asc_node": 97.3869,
        "meta_arg_of_pericenter": 305.7185,
        "meta_mean_anomaly": 54.32,
        "meta_ephemeris_type": 0,
        "meta_classification_type": "U",
        "meta_norad_cat_id": 66920,
        "meta_element_set_no": 999,
        "meta_rev_at_epoch": 159,
        "meta_bstar": 0.00015065402,
        "meta_mean_motion_dot": 8.7e-07,
        "meta_mean_motion_ddot": 0,
        "tle_line1": "1 66920U 25285F   25351.60701431  .00000087  00000+0  15065-3 0  9997",
        "tle_line2": "2 66920  50.0111  97.3869 0005588 305.7185  54.3200 14.03681043  1599"
      },
      "geometry": {
        "type": "Point",
        "coordinates": [
          -144.1810015303116,
          45.906480323243514
        ]
      }
    },
    {
      "type": "Feature",
      "properties": {
        "norad_id": 66921,
        "name": "HULIANWANG DIGUI-111",
        "group": "last-30-days",
        "lat": 43.81382190841471,
        "lon": -137.7850314473871,
        "alt_km": 879.7377973010125,
        "timestamp": "2025-12-17T23:38:05.626654+00:00",
        "meta_object_name": "HULIANWANG DIGUI-111",
        "meta_object_id": "2025-285G",
        "meta_epoch": "2025-12-17T16:15:11.056320",
        "meta_mean_motion": 14.03630834,
        "meta_eccentricity": 0.0006692,
        "meta_inclination": 50.0128,
        "meta_ra_of_asc_node": 97.0966,
        "meta_arg_of_pericenter": 313.3114,
        "meta_mean_anomaly": 46.7232,
        "meta_ephemeris_type": 0,
        "meta_classification_type": "U",
        "meta_norad_cat_id": 66921,
        "meta_element_set_no": 999,
        "meta_rev_at_epoch": 160,
        "meta_bstar": -1.4381e-05,
        "meta_mean_motion_dot": -1.74e-06,
        "meta_mean_motion_ddot": 0,
        "tle_line1": "1 66921U 25285G   25351.67721130 -.00000174  00000+0 -14381-4 0  9993",
        "tle_line2": "2 66921  50.0128  97.0966 0006692 313.3114  46.7232 14.03630834  1601"
      },
      "geometry": {
        "type": "Point",
        "coordinates": [
          -137.7850314473871,
          43.81382190841471
        ]
      }
    },
    {
      "type": "Feature",
      "properties": {
        "norad_id": 66922,
        "name": "HULIANWANG DIGUI-112",
        "group": "last-30-days",
        "lat": 41.36230210842773,
        "lon": -131.83363578546707,
        "alt_km": 879.324715407397,
        "timestamp": "2025-12-17T23:38:05.626668+00:00",
        "meta_object_name": "HULIANWANG DIGUI-112",
        "meta_object_id": "2025-285H",
        "meta_epoch": "2025-12-17T14:31:17.675616",
        "meta_mean_motion": 14.03790869,
        "meta_eccentricity": 0.00066746,
        "meta_inclination": 50.0138,
        "meta_ra_of_asc_node": 97.3497,
        "meta_arg_of_pericenter": 324.7337,
        "meta_mean_anomaly": 35.3126,
        "meta_ephemeris_type": 0,
        "meta_classification_type": "U",
        "meta_norad_cat_id": 66922,
        "meta_element_set_no": 999,
        "meta_rev_at_epoch": 159,
        "meta_bstar": 2.748042e-06,
        "meta_mean_motion_dot": -1.47e-06,
        "meta_mean_motion_ddot": 0,
        "tle_line1": "1 66922U 25285H   25351.60506569 -.00000147  00000+0  27480-5 0  9998",
        "tle_line2": "2 66922  50.0138  97.3497 0006674 324.7337  35.3126 14.03790869  1597"
      },
      "geometry": {
        "type": "Point",
        "coordinates": [
          -131.83363578546707,
          41.36230210842773
        ]
      }
    },
    {
      "type": "Feature",
      "properties": {
        "norad_id": 66923,
        "name": "HULIANWANG DIGUI-113",
        "group": "last-30-days",
        "lat": 38.87404822976715,
        "lon": -126.76111680604313,
        "alt_km": 878.3511392142309,
        "timestamp": "2025-12-17T23:38:05.626678+00:00",
        "meta_object_name": "HULIANWANG DIGUI-113",
        "meta_object_id": "2025-285J",
        "meta_epoch": "2025-12-17T16:12:33.551712",
        "meta_mean_motion": 14.04002193,
        "meta_eccentricity": 0.0005229,
        "meta_inclination": 50.0098,
        "meta_ra_of_asc_node": 97.0805,
        "meta_arg_of_pericenter": 313.3794,
        "meta_mean_anomaly": 46.6674,
        "meta_ephemeris_type": 0,
        "meta_classification_type": "U",
        "meta_norad_cat_id": 66923,
        "meta_element_set_no": 999,
        "meta_rev_at_epoch": 160,
        "meta_bstar": 8.5151e-05,
        "meta_mean_motion_dot": -1.6e-07,
        "meta_mean_motion_ddot": 0,
        "tle_line1": "1 66923U 25285J   25351.67538833 -.00000016  00000+0  85151-4 0  9998",
        "tle_line2": "2 66923  50.0098  97.0805 0005229 313.3794  46.6674 14.04002193  1601"
      },
      "geometry": {
        "type": "Point",
        "coordinates": [
          -126.76111680604313,
          38.87404822976715
        ]
      }
    },
    {
      "type": "Feature",
      "properties": {
        "norad_id": 66924,
        "name": "CZ-8A R/B",
        "group": "last-30-days",
        "lat": 47.47943062046959,
        "lon": 160.09128017710438,
        "alt_km": 728.9820610690986,
        "timestamp": "2025-12-17T23:38:05.626689+00:00",
        "meta_object_name": "CZ-8A R/B",
        "meta_object_id": "2025-285K",
        "meta_epoch": "2025-12-17T13:13:49.772064",
        "meta_mean_motion": 14.30503728,
        "meta_eccentricity": 0.01192803,
        "meta_inclination": 50.0072,
        "meta_ra_of_asc_node": 95.673,
        "meta_arg_of_pericenter": 123.7086,
        "meta_mean_anomaly": 237.5268,
        "meta_ephemeris_type": 0,
        "meta_classification_type": "U",
        "meta_norad_cat_id": 66924,
        "meta_element_set_no": 999,
        "meta_rev_at_epoch": 161,
        "meta_bstar": 5.260353e-05,
        "meta_mean_motion_dot": -1.8e-07,
        "meta_mean_motion_ddot": 0,
        "tle_line1": "1 66924U 25285K   25351.55127051 -.00000018  00000+0  52604-4 0  9991",
        "tle_line2": "2 66924  50.0072  95.6730 0119280 123.7086 237.5268 14.30503728  1615"
      },
      "geometry": {
        "type": "Point",
        "coordinates": [
          160.09128017710438,
          47.47943062046959
        ]
      }
    },
    {
      "type": "Feature",
      "properties": {
        "norad_id": 66925,
        "name": "STARLINK-35945",
        "group": "last-30-days",
        "lat": -49.4189923505546,
        "lon": -37.004731873835595,
        "alt_km": 323.28401676594876,
        "timestamp": "2025-12-17T23:38:05.626699+00:00",
        "meta_object_name": "STARLINK-35945",
        "meta_object_id": "2025-286A",
        "meta_epoch": "2025-12-17T14:00:03.000384",
        "meta_mean_motion": 15.85391992,
        "meta_eccentricity": 9.389e-05,
        "meta_inclination": 53.1564,
        "meta_ra_of_asc_node": 26.1162,
        "meta_arg_of_pericenter": 69.8031,
        "meta_mean_anomaly": 86.91,
        "meta_ephemeris_type": 0,
        "meta_classification_type": "U",
        "meta_norad_cat_id": 66925,
        "meta_element_set_no": 999,
        "meta_rev_at_epoch": 277,
        "meta_bstar": -0.0054127324,
        "meta_mean_motion_dot": -0.01180882,
        "meta_mean_motion_ddot": 0,
        "tle_line1": "1 66925U 25286A   25351.58336806 -.01180882  00000+0 -54127-2 0  9996",
        "tle_line2": "2 66925  53.1564  26.1162 0000938  69.8031  86.9100 15.85391992  2771"
      },
      "geometry": {
        "type": "Point",
        "coordinates": [
          -37.004731873835595,
          -49.4189923505546
        ]
      }
    }
  ]
}